[{"OBJECT_NAME":"ECHOSTAR 25","OBJECT_ID":"2026-045A","EPOCH":"2026-04-08T05:09:51.036192","MEAN_MOTION":1.00272114,"ECCENTRICITY":0.00019973,"INCLINATION":0.0272,"RA_OF_ASC_NODE":285.5269,"ARG_OF_PERICENTER":154.2995,"MEAN_ANOMALY":65.2537,"EPHEMERIS_TYPE":0,"CLASSIFICATION_TYPE":"U","NORAD_CAT_ID":68126,"ELEMENT_SET_NO":999,"REV_AT_EPOCH":29,"BSTAR":0,"MEAN_MOTION_DOT":6.0e-7,"MEAN_MOTION_DDOT":0},{"OBJECT_NAME":"ICOR SV","OBJECT_ID":"2026-046A","EPOCH":"2026-04-07T12:24:06.773184","MEAN_MOTION":16.04698384,"ECCENTRICITY":0.0078841,"INCLINATION":123.0697,"RA_OF_ASC_NODE":338.3484,"ARG_OF_PERICENTER":244.0382,"MEAN_ANOMALY":115.2559,"EPHEMERIS_TYPE":0,"CLASSIFICATION_TYPE":"U","NORAD_CAT_ID":68127,"ELEMENT_SET_NO":999,"REV_AT_EPOCH":419,"BSTAR":0.00056533,"MEAN_MOTION_DOT":0.00592369,"MEAN_MOTION_DDOT":1.2403e-5},{"OBJECT_NAME":"GUOWANG GROUP 20 OBJECT A","OBJECT_ID":"2026-047A","EPOCH":"2026-04-07T15:33:09.729792","MEAN_MOTION":13.77396853,"ECCENTRICITY":9.607e-5,"INCLINATION":50.0035,"RA_OF_ASC_NODE":313.9561,"ARG_OF_PERICENTER":153.4793,"MEAN_ANOMALY":206.6149,"EPHEMERIS_TYPE":0,"CLASSIFICATION_TYPE":"U","NORAD_CAT_ID":68129,"ELEMENT_SET_NO":999,"REV_AT_EPOCH":361,"BSTAR":3.6099958e-5,"MEAN_MOTION_DOT":-1.05e-6,"MEAN_MOTION_DDOT":0},{"OBJECT_NAME":"GUOWANG GROUP 20 OBJECT B","OBJECT_ID":"2026-047B","EPOCH":"2026-04-07T11:58:18.037632","MEAN_MOTION":13.78211692,"ECCENTRICITY":3.532e-5,"INCLINATION":50.0045,"RA_OF_ASC_NODE":314.5004,"ARG_OF_PERICENTER":221.7043,"MEAN_ANOMALY":138.3823,"EPHEMERIS_TYPE":0,"CLASSIFICATION_TYPE":"U","NORAD_CAT_ID":68130,"ELEMENT_SET_NO":999,"REV_AT_EPOCH":358,"BSTAR":6.3564198e-5,"MEAN_MOTION_DOT":-7.7e-7,"MEAN_MOTION_DDOT":0},{"OBJECT_NAME":"GUOWANG GROUP 20 OBJECT C","OBJECT_ID":"2026-047C","EPOCH":"2026-04-07T10:08:57.960384","MEAN_MOTION":13.78348464,"ECCENTRICITY":6.003e-5,"INCLINATION":50.0012,"RA_OF_ASC_NODE":314.7571,"ARG_OF_PERICENTER":280.7634,"MEAN_ANOMALY":79.3192,"EPHEMERIS_TYPE":0,"CLASSIFICATION_TYPE":"U","NORAD_CAT_ID":68131,"ELEMENT_SET_NO":999,"REV_AT_EPOCH":358,"BSTAR":3.622776e-5,"MEAN_MOTION_DOT":-1.05e-6,"MEAN_MOTION_DDOT":0},{"OBJECT_NAME":"GUOWANG GROUP 20 OBJECT D","OBJECT_ID":"2026-047D","EPOCH":"2026-04-07T10:03:54.408672","MEAN_MOTION":13.7855755,"ECCENTRICITY":8.256e-5,"INCLINATION":50.0066,"RA_OF_ASC_NODE":314.7512,"ARG_OF_PERICENTER":259.3867,"MEAN_ANOMALY":100.6934,"EPHEMERIS_TYPE":0,"CLASSIFICATION_TYPE":"U","NORAD_CAT_ID":68132,"ELEMENT_SET_NO":999,"REV_AT_EPOCH":357,"BSTAR":4.4822634e-5,"MEAN_MOTION_DOT":-9.6e-7,"MEAN_MOTION_DDOT":0},{"OBJECT_NAME":"GUOWANG GROUP 20 OBJECT E","OBJECT_ID":"2026-047E","EPOCH":"2026-04-07T01:16:35.691168","MEAN_MOTION":13.7882355,"ECCENTRICITY":0.00018524,"INCLINATION":49.9979,"RA_OF_ASC_NODE":316.1391,"ARG_OF_PERICENTER":220.6312,"MEAN_ANOMALY":139.4444,"EPHEMERIS_TYPE":0,"CLASSIFICATION_TYPE":"U","NORAD_CAT_ID":68133,"ELEMENT_SET_NO":999,"REV_AT_EPOCH":353,"BSTAR":2.8147589e-5,"MEAN_MOTION_DOT":-1.13e-6,"MEAN_MOTION_DDOT":0},{"OBJECT_NAME":"GUOWANG GROUP 20 OBJECT F","OBJECT_ID":"2026-047F","EPOCH":"2026-04-07T15:01:53.894208","MEAN_MOTION":13.78751368,"ECCENTRICITY":8.918e-5,"INCLINATION":50.0071,"RA_OF_ASC_NODE":313.8494,"ARG_OF_PERICENTER":181.7081,"MEAN_ANOMALY":178.381,"EPHEMERIS_TYPE":0,"CLASSIFICATION_TYPE":"U","NORAD_CAT_ID":68134,"ELEMENT_SET_NO":999,"REV_AT_EPOCH":360,"BSTAR":7.9849427e-5,"MEAN_MOTION_DOT":-6.0e-7,"MEAN_MOTION_DDOT":0},{"OBJECT_NAME":"GUOWANG GROUP 20 OBJECT G","OBJECT_ID":"2026-047G","EPOCH":"2026-04-07T16:51:06.095232","MEAN_MOTION":13.78265401,"ECCENTRICITY":0.0003657,"INCLINATION":50.0062,"RA_OF_ASC_NODE":313.5754,"ARG_OF_PERICENTER":179.8732,"MEAN_ANOMALY":180.2163,"EPHEMERIS_TYPE":0,"CLASSIFICATION_TYPE":"U","NORAD_CAT_ID":68135,"ELEMENT_SET_NO":999,"REV_AT_EPOCH":362,"BSTAR":0.00011026872,"MEAN_MOTION_DOT":-3.0e-7,"MEAN_MOTION_DDOT":0},{"OBJECT_NAME":"GUOWANG GROUP 20 OBJECT H","OBJECT_ID":"2026-047H","EPOCH":"2026-04-06T19:49:24.816288","MEAN_MOTION":13.80114638,"ECCENTRICITY":0.00050815,"INCLINATION":50.0092,"RA_OF_ASC_NODE":316.9194,"ARG_OF_PERICENTER":346.1524,"MEAN_ANOMALY":13.9231,"EPHEMERIS_TYPE":0,"CLASSIFICATION_TYPE":"U","NORAD_CAT_ID":68136,"ELEMENT_SET_NO":999,"REV_AT_EPOCH":349,"BSTAR":4.019849e-5,"MEAN_MOTION_DOT":-1.0e-6,"MEAN_MOTION_DDOT":0},{"OBJECT_NAME":"GUOWANG GROUP 20 OBJECT J","OBJECT_ID":"2026-047J","EPOCH":"2026-04-06T23:12:59.909184","MEAN_MOTION":13.79863034,"ECCENTRICITY":0.00011364,"INCLINATION":50.0088,"RA_OF_ASC_NODE":316.3637,"ARG_OF_PERICENTER":7.479,"MEAN_ANOMALY":352.6121,"EPHEMERIS_TYPE":0,"CLASSIFICATION_TYPE":"U","NORAD_CAT_ID":68137,"ELEMENT_SET_NO":999,"REV_AT_EPOCH":352,"BSTAR":1.9699794e-5,"MEAN_MOTION_DOT":-1.22e-6,"MEAN_MOTION_DDOT":0},{"OBJECT_NAME":"SHIYAN-30 03","OBJECT_ID":"2026-048A","EPOCH":"2026-04-08T02:05:21.808608","MEAN_MOTION":14.91796769,"ECCENTRICITY":0.00024854,"INCLINATION":35.001,"RA_OF_ASC_NODE":327.8991,"ARG_OF_PERICENTER":107.5315,"MEAN_ANOMALY":252.5662,"EPHEMERIS_TYPE":0,"CLASSIFICATION_TYPE":"U","NORAD_CAT_ID":68139,"ELEMENT_SET_NO":999,"REV_AT_EPOCH":389,"BSTAR":0.00022718624,"MEAN_MOTION_DOT":2.308e-5,"MEAN_MOTION_DDOT":0},{"OBJECT_NAME":"SHIYAN-30 04","OBJECT_ID":"2026-048B","EPOCH":"2026-04-08T02:06:22.229856","MEAN_MOTION":14.91793558,"ECCENTRICITY":0.00010931,"INCLINATION":34.9924,"RA_OF_ASC_NODE":327.8942,"ARG_OF_PERICENTER":130.1071,"MEAN_ANOMALY":229.9729,"EPHEMERIS_TYPE":0,"CLASSIFICATION_TYPE":"U","NORAD_CAT_ID":68140,"ELEMENT_SET_NO":999,"REV_AT_EPOCH":389,"BSTAR":0.00021579332,"MEAN_MOTION_DOT":2.191e-5,"MEAN_MOTION_DDOT":0}]
